[{"OBJECT_NAME":"GHGSAT-C12","OBJECT_ID":"2025-135B","EPOCH":"2026-03-09T21:42:54.844416","MEAN_MOTION":15.19558972,"ECCENTRICITY":0.0005838,"INCLINATION":97.4617,"RA_OF_ASC_NODE":184.7149,"ARG_OF_PERICENTER":147.3031,"MEAN_ANOMALY":212.8566,"EPHEMERIS_TYPE":0,"CLASSIFICATION_TYPE":"U","NORAD_CAT_ID":64529,"ELEMENT_SET_NO":999,"REV_AT_EPOCH":3974,"BSTAR":0.00022956142,"MEAN_MOTION_DOT":4.815e-5,"MEAN_MOTION_DDOT":0},{"OBJECT_NAME":"CONNECTA IOT-10","OBJECT_ID":"2025-135AD","EPOCH":"2026-03-09T07:35:31.513344","MEAN_MOTION":15.2050793,"ECCENTRICITY":6.9e-5,"INCLINATION":97.4557,"RA_OF_ASC_NODE":184.3751,"ARG_OF_PERICENTER":59.0746,"MEAN_ANOMALY":301.0557,"EPHEMERIS_TYPE":0,"CLASSIFICATION_TYPE":"U","NORAD_CAT_ID":64555,"ELEMENT_SET_NO":999,"REV_AT_EPOCH":3968,"BSTAR":0.00024785757,"MEAN_MOTION_DOT":5.349e-5,"MEAN_MOTION_DDOT":0}]
